start=new Date('2022-06-04T00:00:00.000Z').valueOf();
sats=[{"SEMIMAJOR_AXIS":"6925.377","MEAN_MOTION_DOT":"0.00000647","MEAN_MOTION":"15.06390781","TLE_LINE2":"2 46719  53.0552 274.3520 0001740  56.7741 303.3414 15.06390781 90168","MEAN_MOTION_DDOT":"0.0000000000000","RA_OF_ASC_NODE":"274.3520","OBJECT_ID":"2020-073BB","PERIAPSIS":"546.037","LAUNCH_DATE":"2020-10-18","RCS_SIZE":"LARGE","REF_FRAME":"TEME","NORAD_CAT_ID":"46719","GP_ID":"205297246","OBJECT_TYPE":"PAYLOAD","CLASSIFICATION_TYPE":"U","CENTER_NAME":"EARTH","BSTAR":"0.00006231600000","DECAY_DATE":null,"SITE":"AFETR","APOAPSIS":"548.447","EPHEMERIS_TYPE":"0","ECCENTRICITY":"0.00017400","OBJECT_NAME":"STARLINK-1822","TIME_SYSTEM":"UTC","EPOCH":"2022-06-03T15:56:02.735520","ARG_OF_PERICENTER":"56.7741","COUNTRY_CODE":"US","INCLINATION":"53.0552","MEAN_ANOMALY":"303.3414","PERIOD":"95.593","ELEMENT_SET_NO":"999","REV_AT_EPOCH":"9016","FILE":"3479630","TLE_LINE1":"1 46719U 20073BB  22154.66392055  .00000647  00000-0  62316-4 0  9998","MEAN_ELEMENT_THEORY":"SGP4"},{"SEMIMAJOR_AXIS":"6732.340","MEAN_MOTION_DOT":"0.00052726","MEAN_MOTION":"15.71642401","RA_OF_ASC_NODE":"189.8751","MEAN_MOTION_DDOT":"0.0000000000000","TLE_LINE2":"2 46720  53.0473 189.8751 0004936  12.2818 347.8319 15.71642401 91327","PERIAPSIS":"350.882","OBJECT_ID":"2020-073BC","RCS_SIZE":"LARGE","LAUNCH_DATE":"2020-10-18","REF_FRAME":"TEME","NORAD_CAT_ID":"46720","CENTER_NAME":"EARTH","CLASSIFICATION_TYPE":"U","GP_ID":"205262442","OBJECT_TYPE":"PAYLOAD","OBJECT_NAME":"STARLINK-1823","EPHEMERIS_TYPE":"0","ECCENTRICITY":"0.00049360","APOAPSIS":"357.528","DECAY_DATE":null,"SITE":"AFETR","BSTAR":"0.00040321000000","ARG_OF_PERICENTER":"12.2818","EPOCH":"2022-06-03T08:25:50.856384","TIME_SYSTEM":"UTC","MEAN_ANOMALY":"347.8319","INCLINATION":"53.0473","COUNTRY_CODE":"US","ELEMENT_SET_NO":"999","PERIOD":"91.624","REV_AT_EPOCH":"9132","MEAN_ELEMENT_THEORY":"SGP4","TLE_LINE1":"1 46720U 20073BC  22154.35128306  .00052726  00000-0  40321-3 0  9998","FILE":"3479192"},{"PERIAPSIS":"546.172","OBJECT_ID":"2020-073BE","RA_OF_ASC_NODE":"308.5659","MEAN_MOTION_DDOT":"0.0000000000000","TLE_LINE2":"2 46722  53.0565 308.5659 0001502  74.3259 285.7895 15.06400358 90174","MEAN_MOTION_DOT":"0.00000983","SEMIMAJOR_AXIS":"6925.347","MEAN_MOTION":"15.06400358","NORAD_CAT_ID":"46722","REF_FRAME":"TEME","RCS_SIZE":"LARGE","LAUNCH_DATE":"2020-10-18","EPOCH":"2022-06-03T20:08:48.740928","ARG_OF_PERICENTER":"74.3259","TIME_SYSTEM":"UTC","EPHEMERIS_TYPE":"0","ECCENTRICITY":"0.00015020","OBJECT_NAME":"STARLINK-1825","DECAY_DATE":null,"BSTAR":"0.00008488100000","SITE":"AFETR","APOAPSIS":"548.253","CENTER_NAME":"EARTH","OBJECT_TYPE":"PAYLOAD","GP_ID":"205271873","CLASSIFICATION_TYPE":"U","MEAN_ELEMENT_THEORY":"SGP4","TLE_LINE1":"1 46722U 20073BE  22154.83945302  .00000983  00000-0  84881-4 0  9994","FILE":"3479442","REV_AT_EPOCH":"9017","PERIOD":"95.592","ELEMENT_SET_NO":"999","INCLINATION":"53.0565","MEAN_ANOMALY":"285.7895","COUNTRY_CODE":"US"},{"TLE_LINE1":"1 46723U 20073BF  22154.59985804 -.00005851  00000-0 -37388-3 0  9999","FILE":"3479630","MEAN_ELEMENT_THEORY":"SGP4","REV_AT_EPOCH":"9022","ELEMENT_SET_NO":"999","PERIOD":"95.590","COUNTRY_CODE":"US","MEAN_ANOMALY":"307.9460","INCLINATION":"53.0551","TIME_SYSTEM":"UTC","EPOCH":"2022-06-03T14:23:47.734656","ARG_OF_PERICENTER":"52.1665","BSTAR":"-0.00037388000000","DECAY_DATE":null,"SITE":"AFETR","APOAPSIS":"548.147","OBJECT_NAME":"STARLINK-1826","ECCENTRICITY":"0.00015060","EPHEMERIS_TYPE":"0","CLASSIFICATION_TYPE":"U","GP_ID":"205296495","OBJECT_TYPE":"PAYLOAD","CENTER_NAME":"EARTH","NORAD_CAT_ID":"46723","REF_FRAME":"TEME","LAUNCH_DATE":"2020-10-18","RCS_SIZE":"LARGE","OBJECT_ID":"2020-073BF","PERIAPSIS":"546.061","MEAN_MOTION_DDOT":"0.0000000000000","TLE_LINE2":"2 46723  53.0551 269.6449 0001506  52.1665 307.9460 15.06435642 90228","RA_OF_ASC_NODE":"269.6449","MEAN_MOTION":"15.06435642","SEMIMAJOR_AXIS":"6925.239","MEAN_MOTION_DOT":"-0.00005851"},{"RCS_SIZE":"LARGE","LAUNCH_DATE":"2020-10-18","REF_FRAME":"TEME","NORAD_CAT_ID":"46725","SEMIMAJOR_AXIS":"6925.341","MEAN_MOTION":"15.06402590","MEAN_MOTION_DOT":"0.00000443","RA_OF_ASC_NODE":"308.7242","TLE_LINE2":"2 46725  53.0567 308.7242 0001712  62.4602 297.6561 15.06402590 89699","MEAN_MOTION_DDOT":"0.0000000000000","PERIAPSIS":"546.020","OBJECT_ID":"2020-073BH","INCLINATION":"53.0567","MEAN_ANOMALY":"297.6561","COUNTRY_CODE":"US","PERIOD":"95.592","ELEMENT_SET_NO":"999","REV_AT_EPOCH":"8969","MEAN_ELEMENT_THEORY":"SGP4","FILE":"3479630","TLE_LINE1":"1 46725U 20073BH  22154.80259803  .00000443  00000-0  48648-4 0  9990","CENTER_NAME":"EARTH","OBJECT_TYPE":"PAYLOAD","GP_ID":"205297746","CLASSIFICATION_TYPE":"U","EPHEMERIS_TYPE":"0","ECCENTRICITY":"0.00017120","OBJECT_NAME":"STARLINK-1828","DECAY_DATE":null,"BSTAR":"0.00004864800000","SITE":"AFETR","APOAPSIS":"548.391","EPOCH":"2022-06-03T19:15:44.469792","ARG_OF_PERICENTER":"62.4602","TIME_SYSTEM":"UTC"},{"MEAN_ELEMENT_THEORY":"SGP4","TLE_LINE1":"1 46726U 20073BJ  22154.76063451 -.00000656  00000-0 -25022-4 0  9997","FILE":"3479630","REV_AT_EPOCH":"8989","ELEMENT_SET_NO":"999","PERIOD":"95.592","MEAN_ANOMALY":"57.6076","INCLINATION":"53.0552","COUNTRY_CODE":"US","EPOCH":"2022-06-03T18:15:18.821664","ARG_OF_PERICENTER":"302.4354","TIME_SYSTEM":"UTC","OBJECT_NAME":"STARLINK-1829","EPHEMERIS_TYPE":"0","ECCENTRICITY":"0.00057740","SITE":"AFETR","DECAY_DATE":null,"BSTAR":"-0.00002502200000","APOAPSIS":"551.218","CENTER_NAME":"EARTH","CLASSIFICATION_TYPE":"U","GP_ID":"205297497","OBJECT_TYPE":"PAYLOAD","NORAD_CAT_ID":"46726","REF_FRAME":"TEME","RCS_SIZE":"LARGE","LAUNCH_DATE":"2020-10-18","PERIAPSIS":"543.220","OBJECT_ID":"2020-073BJ","RA_OF_ASC_NODE":"293.9121","TLE_LINE2":"2 46726  53.0552 293.9121 0005774 302.4354  57.6076 15.06398172 89895","MEAN_MOTION_DDOT":"0.0000000000000","SEMIMAJOR_AXIS":"6925.354","MEAN_MOTION":"15.06398172","MEAN_MOTION_DOT":"-0.00000656"},{"REF_FRAME":"TEME","LAUNCH_DATE":"2020-10-18","RCS_SIZE":"LARGE","NORAD_CAT_ID":"46727","MEAN_MOTION":"15.06396560","SEMIMAJOR_AXIS":"6925.359","MEAN_MOTION_DOT":"0.00001668","OBJECT_ID":"2020-073BK","PERIAPSIS":"545.928","TLE_LINE2":"2 46727  53.0538 268.8160 0001872  60.5995 299.5180 15.06396560 90256","MEAN_MOTION_DDOT":"0.0000000000000","RA_OF_ASC_NODE":"268.8160","PERIOD":"95.592","ELEMENT_SET_NO":"999","COUNTRY_CODE":"US","INCLINATION":"53.0538","MEAN_ANOMALY":"299.5180","FILE":"3479630","TLE_LINE1":"1 46727U 20073BK  22154.78417518  .00001668  00000-0  13084-3 0  9993","MEAN_ELEMENT_THEORY":"SGP4","REV_AT_EPOCH":"9025","OBJECT_TYPE":"PAYLOAD","GP_ID":"205296745","CLASSIFICATION_TYPE":"U","CENTER_NAME":"EARTH","TIME_SYSTEM":"UTC","EPOCH":"2022-06-03T18:49:12.735552","ARG_OF_PERICENTER":"60.5995","SITE":"AFETR","DECAY_DATE":null,"BSTAR":"0.00013084000000","APOAPSIS":"548.521","ECCENTRICITY":"0.00018720","EPHEMERIS_TYPE":"0","OBJECT_NAME":"STARLINK-1830"},{"REV_AT_EPOCH":"8936","MEAN_ELEMENT_THEORY":"SGP4","FILE":"3479630","TLE_LINE1":"1 46740U 20074B   22154.74454525  .00000171  00000-0  30356-4 0  9994","INCLINATION":"53.0564","MEAN_ANOMALY":"298.4717","COUNTRY_CODE":"US","PERIOD":"95.592","ELEMENT_SET_NO":"999","EPHEMERIS_TYPE":"0","ECCENTRICITY":"0.00015490","OBJECT_NAME":"STARLINK-1848","DECAY_DATE":null,"BSTAR":"0.00003035600000","SITE":"AFETR","APOAPSIS":"548.291","EPOCH":"2022-06-03T17:52:08.709600","ARG_OF_PERICENTER":"61.6428","TIME_SYSTEM":"UTC","CENTER_NAME":"EARTH","OBJECT_TYPE":"PAYLOAD","GP_ID":"205296496","CLASSIFICATION_TYPE":"U","NORAD_CAT_ID":"46740","RCS_SIZE":"LARGE","LAUNCH_DATE":"2020-10-24","REF_FRAME":"TEME","RA_OF_ASC_NODE":"18.9933","MEAN_MOTION_DDOT":"0.0000000000000","TLE_LINE2":"2 46740  53.0564  18.9933 0001549  61.6428 298.4717 15.06398395 89368","PERIAPSIS":"546.146","OBJECT_ID":"2020-074B","SEMIMAJOR_AXIS":"6925.353","MEAN_MOTION_DOT":"0.00000171","MEAN_MOTION":"15.06398395"},{"REF_FRAME":"TEME","RCS_SIZE":"LARGE","LAUNCH_DATE":"2020-10-24","NORAD_CAT_ID":"46741","SEMIMAJOR_AXIS":"6925.341","MEAN_MOTION_DOT":"-0.00000051","MEAN_MOTION":"15.06402504","PERIAPSIS":"546.147","OBJECT_ID":"2020-074C","RA_OF_ASC_NODE":"14.2097","MEAN_MOTION_DDOT":"0.0000000000000","TLE_LINE2":"2 46741  53.0567  14.2097 0001529  66.7263 293.3887 15.06402504 89431","ELEMENT_SET_NO":"999","PERIOD":"95.592","MEAN_ANOMALY":"293.3887","INCLINATION":"53.0567","COUNTRY_CODE":"US","MEAN_ELEMENT_THEORY":"SGP4","TLE_LINE1":"1 46741U 20074C   22154.69524610 -.00000051  00000-0  15485-4 0  9996","FILE":"3479630","REV_AT_EPOCH":"8943","CENTER_NAME":"EARTH","CLASSIFICATION_TYPE":"U","GP_ID":"205297747","OBJECT_TYPE":"PAYLOAD","ARG_OF_PERICENTER":"66.7263","EPOCH":"2022-06-03T16:41:09.263040","TIME_SYSTEM":"UTC","OBJECT_NAME":"STARLINK-1865","ECCENTRICITY":"0.00015290","EPHEMERIS_TYPE":"0","DECAY_DATE":null,"SITE":"AFETR","APOAPSIS":"548.265","BSTAR":"0.00001548500000"},{"REF_FRAME":"TEME","LAUNCH_DATE":"2020-10-24","RCS_SIZE":"LARGE","NORAD_CAT_ID":"46742","MEAN_MOTION_DOT":"-0.00000731","SEMIMAJOR_AXIS":"6925.324","MEAN_MOTION":"15.06407974","OBJECT_ID":"2020-074D","PERIAPSIS":"546.062","TLE_LINE2":"2 46742  53.0565  14.0484 0001628  69.3050 290.8113 15.06407974 89431","MEAN_MOTION_DDOT":"0.0000000000000","RA_OF_ASC_NODE":"14.0484","ELEMENT_SET_NO":"999","PERIOD":"95.592","COUNTRY_CODE":"US","MEAN_ANOMALY":"290.8113","INCLINATION":"53.0565","TLE_LINE1":"1 46742U 20074D   22154.73209829 -.00000731  00000-0 -30152-4 0  9998","FILE":"3479630","MEAN_ELEMENT_THEORY":"SGP4","REV_AT_EPOCH":"8943","CLASSIFICATION_TYPE":"U","GP_ID":"205297498","OBJECT_TYPE":"PAYLOAD","CENTER_NAME":"EARTH","TIME_SYSTEM":"UTC","EPOCH":"2022-06-03T17:34:13.292256","ARG_OF_PERICENTER":"69.3050","DECAY_DATE":null,"BSTAR":"-0.00003015200000","SITE":"AFETR","APOAPSIS":"548.317","OBJECT_NAME":"STARLINK-1872","ECCENTRICITY":"0.00016280","EPHEMERIS_TYPE":"0"}];
